SL-14 R/B               
1 16496U 86006B   26082.38405282  .00000842  00000+0  86921-4 0  9999
2 16496  82.5241 246.8448 0075422 226.5535 132.9392 14.86834824151244
COSMOS 1743             
1 16719U 86034A   26082.31307881  .00041343  00000+0  51709-3 0  9993
2 16719  82.5304  59.5201 0003198 189.9395 170.1799 15.59625856182372
SL-14 R/B               
1 16792U 86046B   26082.41299566  .00000488  00000+0  53300-4 0  9993
2 16792  82.4794  67.2109 0023068 178.7376 181.3903 14.85603021128448
SL-14 R/B               
1 16882U 86055B   26082.56000297  .00000407  00000+0  44120-4 0  9991
2 16882  82.5177 113.6346 0017386 287.7735 225.6487 14.85654299121422
AJISAI (EGS)            
1 16908U 86061A   26082.53979451 -.00000107  00000+0 -69906-4 0  9999
2 16908  50.0100  50.7568 0011316 322.7298 158.1979 12.44515664469724
SL-14 R/B               
1 17567U 87024B   26082.44139058  .00000474  00000+0  51177-4 0  9998
2 17567  82.5248  79.8343 0017333 210.9673 149.0523 14.86144552 90177
COSMOS 1833             
1 17589U 87027A   26082.02716955 -.00000266  00000+0 -11632-3 0  9998
2 17589  70.9186 297.9865 0023568 195.1710 164.8707 14.13050200 12201
SL-16 R/B               
1 17590U 87027B   26082.45624994 -.00000200  00000+0 -75567-4 0  9994
2 17590  70.9994 247.4826 0002954 109.8217 250.3225 14.17166019 17297
SL-14 R/B               
1 17912U 87038B   26082.51079410  .00000433  00000+0  47308-4 0  9996
2 17912  82.4980 283.7846 0020611 116.9730 243.3594 14.85380914 81280
COSMOS 1844             
1 17973U 87041A   26082.47245699  .00000240  00000+0  14976-3 0  9996
2 17973  70.9012   5.1048 0030716 357.8242   2.2741 14.14552855  5533
SL-14 R/B               
1 18153U 87055B   26082.41787633  .00000473  00000+0  51703-4 0  9993
2 18153  82.5017 336.0957 0019922 332.2110  27.8040 14.85643213 71973
COSMOS 1867             
1 18187U 87060A   26082.20398657 -.00000032  00000+0  25457-4 0  9996
2 18187  65.0091 268.8571 0014696 279.4765  80.4658 14.31505021 21872
SL-14 R/B               
1 18749U 88001B   26082.54889146  .00000515  00000+0  56694-4 0  9993
2 18749  82.5163 182.3291 0017872 187.8398 172.2542 14.85542769 44081
COSMOS 1933             
1 18958U 88020A   26082.36882433  .00005674  00000+0  27672-3 0  9992
2 18958  82.5118 237.3738 0004981 139.7988 220.3615 15.18108349 52307
SL-3 R/B                
1 19046U 88032B   26082.49147085  .00005564  00000+0  25893-3 0  9996
2 19046  97.5214  65.6968 0025760 181.6949 178.4202 15.20057747 54201
SL-16 R/B               
1 19120U 88039B   26082.29773828 -.00000072  00000+0 -11295-4 0  9997
2 19120  71.0157  39.7714 0023417 314.7520  45.1699 14.19617713960319
COSMOS 1953             
1 19210U 88050A   26082.43764594  .00008587  00000+0  30551-3 0  9998
2 19210  82.5082 144.4192 0012549  79.6553 280.6101 15.28741216 39884
